[{"OBJECT_NAME":"STARLINK-35277","OBJECT_ID":"2025-221K","EPOCH":"2026-03-09T11:50:14.254656","MEAN_MOTION":15.30160899,"ECCENTRICITY":0.00013524,"INCLINATION":53.1593,"RA_OF_ASC_NODE":89.2337,"ARG_OF_PERICENTER":79.5609,"MEAN_ANOMALY":280.5544,"EPHEMERIS_TYPE":0,"CLASSIFICATION_TYPE":"U","NORAD_CAT_ID":65832,"ELEMENT_SET_NO":999,"REV_AT_EPOCH":2605,"BSTAR":0.00086520701,"MEAN_MOTION_DOT":0.00025322,"MEAN_MOTION_DDOT":0},{"OBJECT_NAME":"OBJECT N","OBJECT_ID":"2019-093N","EPOCH":"2026-03-09T21:41:56.087232","MEAN_MOTION":15.29897693,"ECCENTRICITY":0.0006278,"INCLINATION":98.0505,"RA_OF_ASC_NODE":226.9456,"ARG_OF_PERICENTER":33.3806,"MEAN_ANOMALY":326.7828,"EPHEMERIS_TYPE":0,"CLASSIFICATION_TYPE":"U","NORAD_CAT_ID":44891,"ELEMENT_SET_NO":999,"REV_AT_EPOCH":33957,"BSTAR":0.0010567776,"MEAN_MOTION_DOT":0.00030617,"MEAN_MOTION_DDOT":0}]
